{
  "type": "Feature",
  "properties": {},
  "geometry": {
    "type": "MultiPolygon",
    "coordinates": [
      [
        [
          [
            92.28,
            26.18
          ],
          [
            92.305,
            26.165
          ],
          [
            92.335,
            26.175
          ],
          [
            92.345,
            26.2
          ],
          [
            92.33,
            26.225
          ],
          [
            92.3,
            26.235
          ],
          [
            92.275,
            26.225
          ],
          [
            92.26,
            26.205
          ],
          [
            92.265,
            26.185
          ],
          [
            92.28,
            26.18
          ]
        ]
      ]
    ]
  }
}